KUIPER-00044            
1 64505U 25134F   25332.79304765  .00004798  00000+0  65723-3 0  9994
2 64505  51.9003 332.7597 0011038 299.1391  60.8466 14.79954821 24942
KUIPER-00046            
1 64506U 25134G   25332.38872173  .00005791  00000+0  78004-3 0  9993
2 64506  51.9002 330.9801 0012123 308.8714  51.1166 14.80329819 24937
KUIPER-00047            
1 64507U 25134H   25332.32770040  .00005277  00000+0  67328-3 0  9994
2 64507  51.8997 303.1738 0008054 322.3753  37.6646 14.82807462 25315
KUIPER-00048            
1 64508U 25134J   25332.62452109  .00005369  00000+0  73164-3 0  9998
2 64508  51.9000 302.4952 0002864  80.8980 279.2307 14.79993970 25351
KUIPER-00049            
1 64509U 25134K   25332.40667270  .00015210  00000+0  20176-2 0  9992
2 64509  51.9003 316.9268 0002851 320.2305  39.8448 14.79975019 25139
KUIPER-00050            
1 64510U 25134L   25332.35325332  .00008294  00000+0  74586-3 0  9997
2 64510  51.8909 312.3202 0004843 350.8855   9.2025 14.96387959 25192
KUIPER-00051            
1 64511U 25134M   25332.34188475  .00010166  00000+0  13609-2 0  9991
2 64511  51.9032 314.7780 0001785 328.3220  31.7634 14.79920569 25159
KUIPER-00052            
1 64512U 25134N   25332.82806704  .00200770  00000+0  16814-2 0  9990
2 64512  51.8653 265.4534 0005047  49.3355 310.8083 15.68797772 25876
